start=new Date('2022-05-27T00:00:00.000Z').valueOf();
sats=[{"NORAD_CAT_ID":"51813","ECCENTRICITY":"0.00019200","APOAPSIS":"439.804","BSTAR":"-0.00726730000000","MEAN_MOTION_DDOT":"0.0000000000000","FILE":"3466271","COUNTRY_CODE":"US","PERIAPSIS":"437.186","SITE":"AFWTR","MEAN_MOTION_DOT":"-0.00308630","SEMIMAJOR_AXIS":"6816.630","GP_ID":"204630311","ELEMENT_SET_NO":"999","TIME_SYSTEM":"UTC","MEAN_ELEMENT_THEORY":"SGP4","OBJECT_ID":"2022-017AX","TLE_LINE1":"1 51813U 22017AX  22146.88528772 -.00308630  00000-0 -72673-2 0  9991","RCS_SIZE":"LARGE","ARG_OF_PERICENTER":"80.2980","REF_FRAME":"TEME","CENTER_NAME":"EARTH","PERIOD":"93.350","OBJECT_NAME":"STARLINK-3552","MEAN_ANOMALY":"279.8244","RA_OF_ASC_NODE":"59.3697","EPHEMERIS_TYPE":"0","OBJECT_TYPE":"PAYLOAD","DECAY_DATE":null,"EPOCH":"2022-05-26T21:14:48.859008","TLE_LINE2":"2 51813  53.2137  59.3697 0001920  80.2980 279.8244 15.42581742 15291","MEAN_MOTION":"15.42581742","CLASSIFICATION_TYPE":"U","INCLINATION":"53.2137","LAUNCH_DATE":"2022-02-25","REV_AT_EPOCH":"1529"},{"OBJECT_ID":"2022-017AY","TIME_SYSTEM":"UTC","ELEMENT_SET_NO":"999","MEAN_ELEMENT_THEORY":"SGP4","MEAN_MOTION_DOT":"-0.00171620","SITE":"AFWTR","SEMIMAJOR_AXIS":"6807.734","GP_ID":"204630418","COUNTRY_CODE":"US","PERIAPSIS":"427.715","FILE":"3466271","MEAN_MOTION_DDOT":"0.0000000000000","BSTAR":"-0.00357820000000","APOAPSIS":"431.483","ECCENTRICITY":"0.00027670","NORAD_CAT_ID":"51814","LAUNCH_DATE":"2022-02-25","REV_AT_EPOCH":"1528","CLASSIFICATION_TYPE":"U","INCLINATION":"53.2172","TLE_LINE2":"2 51814  53.2172  59.5408 0002767 143.2931 216.8267 15.45606306 15281","MEAN_MOTION":"15.45606306","EPOCH":"2022-05-26T21:01:57.683712","DECAY_DATE":null,"RA_OF_ASC_NODE":"59.5408","MEAN_ANOMALY":"216.8267","OBJECT_TYPE":"PAYLOAD","EPHEMERIS_TYPE":"0","OBJECT_NAME":"STARLINK-3599","CENTER_NAME":"EARTH","PERIOD":"93.167","RCS_SIZE":"LARGE","TLE_LINE1":"1 51814U 22017AY  22146.87636208 -.00171620  00000-0 -35782-2 0  9992","ARG_OF_PERICENTER":"143.2931","REF_FRAME":"TEME"},{"SEMIMAJOR_AXIS":"6812.178","GP_ID":"204629870","MEAN_MOTION_DOT":"-0.00718115","SITE":"AFWTR","OBJECT_ID":"2022-017AZ","MEAN_ELEMENT_THEORY":"SGP4","TIME_SYSTEM":"UTC","ELEMENT_SET_NO":"999","APOAPSIS":"434.948","ECCENTRICITY":"0.00013290","NORAD_CAT_ID":"51815","PERIAPSIS":"433.138","COUNTRY_CODE":"US","FILE":"3466271","MEAN_MOTION_DDOT":"0.0000000000000","BSTAR":"-0.01671200000000","MEAN_MOTION":"15.44094157","TLE_LINE2":"2 51815  53.2176  59.3571 0001329  80.9172 141.6713 15.44094157  1305","EPOCH":"2022-05-26T22:00:00.999936","DECAY_DATE":null,"REV_AT_EPOCH":"130","LAUNCH_DATE":"2022-02-25","CLASSIFICATION_TYPE":"U","INCLINATION":"53.2176","PERIOD":"93.259","CENTER_NAME":"EARTH","TLE_LINE1":"1 51815U 22017AZ  22146.91667824 -.00718115  00000-0 -16712-1 0  9993","RCS_SIZE":"LARGE","ARG_OF_PERICENTER":"80.9172","REF_FRAME":"TEME","OBJECT_TYPE":"PAYLOAD","EPHEMERIS_TYPE":"0","RA_OF_ASC_NODE":"59.3571","MEAN_ANOMALY":"141.6713","OBJECT_NAME":"STARLINK-3604"},{"EPOCH":"2022-05-26T21:01:07.091328","DECAY_DATE":null,"TLE_LINE2":"2 51816  53.2175  59.5546 0002933 174.5696 185.5345 15.45793676 15331","MEAN_MOTION":"15.45793676","CLASSIFICATION_TYPE":"U","INCLINATION":"53.2175","LAUNCH_DATE":"2022-02-25","REV_AT_EPOCH":"1533","RCS_SIZE":"LARGE","TLE_LINE1":"1 51816U 22017BA  22146.87577652 -.00172783  00000-0 -35798-2 0  9999","REF_FRAME":"TEME","ARG_OF_PERICENTER":"174.5696","CENTER_NAME":"EARTH","PERIOD":"93.156","OBJECT_NAME":"STARLINK-3603","RA_OF_ASC_NODE":"59.5546","MEAN_ANOMALY":"185.5345","OBJECT_TYPE":"PAYLOAD","EPHEMERIS_TYPE":"0","MEAN_MOTION_DOT":"-0.00172783","SITE":"AFWTR","SEMIMAJOR_AXIS":"6807.184","GP_ID":"204630525","TIME_SYSTEM":"UTC","ELEMENT_SET_NO":"999","MEAN_ELEMENT_THEORY":"SGP4","OBJECT_ID":"2022-017BA","NORAD_CAT_ID":"51816","APOAPSIS":"431.046","ECCENTRICITY":"0.00029330","MEAN_MOTION_DDOT":"0.0000000000000","BSTAR":"-0.00357980000000","PERIAPSIS":"427.052","COUNTRY_CODE":"US","FILE":"3466271"},{"MEAN_MOTION":"15.77642289","TLE_LINE2":"2 51817  53.2167  52.8577 0007419 275.9301  84.0876 15.77642289 15471","EPOCH":"2022-05-26T18:14:16.628352","DECAY_DATE":null,"REV_AT_EPOCH":"1547","LAUNCH_DATE":"2022-02-25","CLASSIFICATION_TYPE":"U","INCLINATION":"53.2167","PERIOD":"91.275","CENTER_NAME":"EARTH","RCS_SIZE":"LARGE","TLE_LINE1":"1 51817U 22017BB  22146.75991468 -.00068159  00000-0 -39831-3 0  9996","ARG_OF_PERICENTER":"275.9301","REF_FRAME":"TEME","OBJECT_TYPE":"PAYLOAD","EPHEMERIS_TYPE":"0","RA_OF_ASC_NODE":"52.8577","MEAN_ANOMALY":"84.0876","OBJECT_NAME":"STARLINK-3596","GP_ID":"204629977","SEMIMAJOR_AXIS":"6715.260","MEAN_MOTION_DOT":"-0.00068159","SITE":"AFWTR","OBJECT_ID":"2022-017BB","MEAN_ELEMENT_THEORY":"SGP4","TIME_SYSTEM":"UTC","ELEMENT_SET_NO":"999","APOAPSIS":"342.107","ECCENTRICITY":"0.00074190","NORAD_CAT_ID":"51817","PERIAPSIS":"332.143","COUNTRY_CODE":"US","FILE":"3466271","MEAN_MOTION_DDOT":"0.0000000000000","BSTAR":"-0.00039831000000"},{"OBJECT_ID":"2022-022A","ELEMENT_SET_NO":"999","TIME_SYSTEM":"UTC","MEAN_ELEMENT_THEORY":"SGP4","SITE":"AFETR","MEAN_MOTION_DOT":"0.00012421","GP_ID":"204600736","SEMIMAJOR_AXIS":"6917.922","FILE":"3465946","PERIAPSIS":"538.268","COUNTRY_CODE":"US","BSTAR":"0.00079743000000","MEAN_MOTION_DDOT":"0.0000000000000","APOAPSIS":"541.306","ECCENTRICITY":"0.00021960","NORAD_CAT_ID":"51852","LAUNCH_DATE":"2022-03-03","REV_AT_EPOCH":"1426","CLASSIFICATION_TYPE":"U","INCLINATION":"53.2149","TLE_LINE2":"2 51852  53.2149 106.6280 0002196  47.4724  84.3005 15.08826451 14269","MEAN_MOTION":"15.08826451","DECAY_DATE":null,"EPOCH":"2022-05-26T22:00:00.999936","MEAN_ANOMALY":"84.3005","RA_OF_ASC_NODE":"106.6280","EPHEMERIS_TYPE":"0","OBJECT_TYPE":"PAYLOAD","OBJECT_NAME":"STARLINK-3542","CENTER_NAME":"EARTH","PERIOD":"95.438","ARG_OF_PERICENTER":"47.4724","TLE_LINE1":"1 51852U 22022A   22146.91667824  .00012421  00000-0  79743-3 0  9990","RCS_SIZE":"LARGE","REF_FRAME":"TEME"},{"PERIAPSIS":"538.503","COUNTRY_CODE":"US","FILE":"3466271","MEAN_MOTION_DDOT":"0.0000000000000","BSTAR":"0.00042721000000","ECCENTRICITY":"0.00018550","APOAPSIS":"541.070","NORAD_CAT_ID":"51853","OBJECT_ID":"2022-022B","MEAN_ELEMENT_THEORY":"SGP4","TIME_SYSTEM":"UTC","ELEMENT_SET_NO":"999","SEMIMAJOR_AXIS":"6917.922","GP_ID":"204630529","MEAN_MOTION_DOT":"0.00006515","SITE":"AFETR","OBJECT_TYPE":"PAYLOAD","EPHEMERIS_TYPE":"0","RA_OF_ASC_NODE":"106.6286","MEAN_ANOMALY":"63.1109","OBJECT_NAME":"STARLINK-3539","PERIOD":"95.438","CENTER_NAME":"EARTH","RCS_SIZE":"LARGE","TLE_LINE1":"1 51853U 22022B   22146.91667824  .00006515  00000-0  42721-3 0  9994","REF_FRAME":"TEME","ARG_OF_PERICENTER":"48.6482","REV_AT_EPOCH":"130","LAUNCH_DATE":"2022-03-03","CLASSIFICATION_TYPE":"U","INCLINATION":"53.2154","MEAN_MOTION":"15.08826545","TLE_LINE2":"2 51853  53.2154 106.6286 0001855  48.6482  63.1109 15.08826545  1302","EPOCH":"2022-05-26T22:00:00.999936","DECAY_DATE":null},{"MEAN_MOTION_DDOT":"0.0000000000000","BSTAR":"-0.00157040000000","COUNTRY_CODE":"US","PERIAPSIS":"538.328","FILE":"3466271","NORAD_CAT_ID":"51854","APOAPSIS":"541.379","ECCENTRICITY":"0.00022050","MEAN_ELEMENT_THEORY":"SGP4","TIME_SYSTEM":"UTC","ELEMENT_SET_NO":"999","OBJECT_ID":"2022-022C","GP_ID":"204629981","SEMIMAJOR_AXIS":"6917.989","MEAN_MOTION_DOT":"-0.00025171","SITE":"AFETR","OBJECT_NAME":"STARLINK-3541","OBJECT_TYPE":"PAYLOAD","EPHEMERIS_TYPE":"0","RA_OF_ASC_NODE":"106.6229","MEAN_ANOMALY":"111.7962","ARG_OF_PERICENTER":"39.9754","TLE_LINE1":"1 51854U 22022C   22146.91667824 -.00025171  00000-0 -15704-2 0  9996","RCS_SIZE":"LARGE","REF_FRAME":"TEME","PERIOD":"95.440","CENTER_NAME":"EARTH","INCLINATION":"53.2162","CLASSIFICATION_TYPE":"U","REV_AT_EPOCH":"130","LAUNCH_DATE":"2022-03-03","EPOCH":"2022-05-26T22:00:00.999936","DECAY_DATE":null,"MEAN_MOTION":"15.08804544","TLE_LINE2":"2 51854  53.2162 106.6229 0002205  39.9754 111.7962 15.08804544  1306"},{"DECAY_DATE":null,"EPOCH":"2022-05-26T22:00:00.999936","MEAN_MOTION":"15.08835327","TLE_LINE2":"2 51855  53.2135 106.6249 0001716  53.3119 138.4232 15.08835327 14213","CLASSIFICATION_TYPE":"U","INCLINATION":"53.2135","REV_AT_EPOCH":"1421","LAUNCH_DATE":"2022-03-03","ARG_OF_PERICENTER":"53.3119","TLE_LINE1":"1 51855U 22022D   22146.91667824  .00011077  00000-0  71305-3 0  9995","RCS_SIZE":"LARGE","REF_FRAME":"TEME","PERIOD":"95.438","CENTER_NAME":"EARTH","OBJECT_NAME":"STARLINK-3545","EPHEMERIS_TYPE":"0","OBJECT_TYPE":"PAYLOAD","MEAN_ANOMALY":"138.4232","RA_OF_ASC_NODE":"106.6249","GP_ID":"204600733","SEMIMAJOR_AXIS":"6917.895","SITE":"AFETR","MEAN_MOTION_DOT":"0.00011077","MEAN_ELEMENT_THEORY":"SGP4","ELEMENT_SET_NO":"999","TIME_SYSTEM":"UTC","OBJECT_ID":"2022-022D","NORAD_CAT_ID":"51855","ECCENTRICITY":"0.00017160","APOAPSIS":"540.947","BSTAR":"0.00071305000000","MEAN_MOTION_DDOT":"0.0000000000000","FILE":"3465946","PERIAPSIS":"538.573","COUNTRY_CODE":"US"},{"MEAN_ANOMALY":"125.1025","RA_OF_ASC_NODE":"106.6269","EPHEMERIS_TYPE":"0","OBJECT_TYPE":"PAYLOAD","OBJECT_NAME":"STARLINK-3568","CENTER_NAME":"EARTH","PERIOD":"95.437","TLE_LINE1":"1 51856U 22022E   22146.91667824 -.00021815  00000-0 -13562-2 0  9999","RCS_SIZE":"LARGE","ARG_OF_PERICENTER":"46.6310","REF_FRAME":"TEME","LAUNCH_DATE":"2022-03-03","REV_AT_EPOCH":"1429","CLASSIFICATION_TYPE":"U","INCLINATION":"53.2151","TLE_LINE2":"2 51856  53.2151 106.6269 0001940  46.6310 125.1025 15.08851725 14292","MEAN_MOTION":"15.08851725","DECAY_DATE":null,"EPOCH":"2022-05-26T22:00:00.999936","FILE":"3465946","COUNTRY_CODE":"US","PERIAPSIS":"538.367","BSTAR":"-0.00135620000000","MEAN_MOTION_DDOT":"0.0000000000000","APOAPSIS":"541.052","ECCENTRICITY":"0.00019400","NORAD_CAT_ID":"51856","OBJECT_ID":"2022-022E","ELEMENT_SET_NO":"999","TIME_SYSTEM":"UTC","MEAN_ELEMENT_THEORY":"SGP4","SITE":"AFETR","MEAN_MOTION_DOT":"-0.00021815","GP_ID":"204600250","SEMIMAJOR_AXIS":"6917.845"}];
